EXPRESS-AT2             
1 39613U 14010B   22231.24318470 -.00000287  00000+0  00000+0 0  9993
2 39613   0.0393 278.4684 0000180 338.0169 298.4680  1.00271366 30867
AMAZONAS 4A             
1 39616U 14011A   22231.05676285 -.00000259  00000+0  00000+0 0  9996
2 39616   0.0084 133.0901 0003825  30.8146 109.9232  1.00271560 30849
ASTRA 5B                
1 39617U 14011B   22231.07769094  .00000148  00000+0  00000+0 0  9996
2 39617   0.0580 302.2917 0004463 221.3981 223.1979  1.00276608 30857
IRNSS-1B                
1 39635U 14017A   22225.68521743  .00000103  00000+0  00000+0 0  9990
2 39635  28.6290 264.1420 0021587 191.9483 167.7247  1.00276046 30713
LUCH 5V                 
1 39727U 14023A   22230.86938522 -.00000275  00000+0  00000+0 0  9993
2 39727   1.6413  76.2416 0003665  93.1146 205.4813  1.00268592 30330
KAZSAT-3                
1 39728U 14023B   22231.08309736  .00000055  00000+0  00000+0 0  9993
2 39728   0.0153 113.1439 0000502  97.0076 205.6571  1.00266460 30428
EUTELSAT 3B             
1 39773U 14030A   22230.85686539  .00000013  00000+0  00000+0 0  9998
2 39773   0.0631  16.0833 0004698 153.1424 109.5081  1.00272351 30041
ASIASAT 8 (AMOS-7)      
1 40107U 14046A   22230.85188097 -.00000040  00000+0  00000+0 0  9995
2 40107   0.0053 295.3554 0002035 206.9467 127.6580  1.00272656 88126
ASIASAT 6               
1 40141U 14052A   22230.95184142 -.00000369  00000+0  00000+0 0  9992
2 40141   0.0077 201.4322 0000849 282.7511 305.6565  1.00270174 29145
OPTUS 10                
1 40146U 14054A   22230.88729833 -.00000154  00000+0  00000+0 0  9995
2 40146   0.1207 100.5262 0004145  64.1439 277.9851  1.00268611 29100
MEASAT-3B               
1 40147U 14054B   22228.59945965 -.00000253  00000+0  00000+0 0  9997
2 40147   0.0359  47.5258 0002083  47.1548 177.5505  1.00268180 28868
LUCH (OLYMP)            
1 40258U 14058A   22230.91564955 -.00000157  00000+0  00000+0 0  9992
2 40258   0.0113 116.5642 0001249  13.7641 159.6835  0.99685014 26961
HIMAWARI-8              
1 40267U 14060A   22230.85952025 -.00000282  00000+0  00000+0 0  9996
2 40267   0.0244 200.8443 0000922 330.4749 245.9598  1.00271935 28735
IRNSS-1C                
1 40269U 14061A   22230.85709786 -.00000172  00000+0  00000+0 0  9991
2 40269   3.0905 126.2693 0020704   2.6277 229.9150  1.00275248 28665
INTELSAT 30 (IS-30)     
1 40271U 14062A   22231.11660517 -.00000156  00000+0  00000+0 0  9995
2 40271   0.0094 129.7535 0001527 314.7863 189.8163  1.00266600 28746
ARSAT 1                 
1 40272U 14062B   22230.58313314 -.00000266  00000+0  00000+0 0  9998
2 40272   0.0394 301.8717 0001686 222.0291 301.1148  1.00269847 28598
EXPRESS-AM6             
1 40277U 14064A   22231.17757535  .00000092  00000+0  00000+0 0  9994
2 40277   0.0464 262.0615 0000857 333.9571 208.3976  1.00273378 28656
