[{"OBJECT_NAME":"EXPRESS-AT2","OBJECT_ID":"2014-010B","EPOCH":"2022-08-19T05:50:11.158080","MEAN_MOTION":1.00271366,"ECCENTRICITY":1.8e-5,"INCLINATION":0.0393,"RA_OF_ASC_NODE":278.4684,"ARG_OF_PERICENTER":338.0169,"MEAN_ANOMALY":298.468,"EPHEMERIS_TYPE":0,"CLASSIFICATION_TYPE":"U","NORAD_CAT_ID":39613,"ELEMENT_SET_NO":999,"REV_AT_EPOCH":3086,"BSTAR":0,"MEAN_MOTION_DOT":-2.87e-6,"MEAN_MOTION_DDOT":0},{"OBJECT_NAME":"AMAZONAS 4A","OBJECT_ID":"2014-011A","EPOCH":"2022-08-19T01:21:44.310240","MEAN_MOTION":1.0027156,"ECCENTRICITY":0.0003825,"INCLINATION":0.0084,"RA_OF_ASC_NODE":133.0901,"ARG_OF_PERICENTER":30.8146,"MEAN_ANOMALY":109.9232,"EPHEMERIS_TYPE":0,"CLASSIFICATION_TYPE":"U","NORAD_CAT_ID":39616,"ELEMENT_SET_NO":999,"REV_AT_EPOCH":3084,"BSTAR":0,"MEAN_MOTION_DOT":-2.59e-6,"MEAN_MOTION_DDOT":0},{"OBJECT_NAME":"ASTRA 5B","OBJECT_ID":"2014-011B","EPOCH":"2022-08-19T01:51:52.497216","MEAN_MOTION":1.00276608,"ECCENTRICITY":0.0004463,"INCLINATION":0.058,"RA_OF_ASC_NODE":302.2917,"ARG_OF_PERICENTER":221.3981,"MEAN_ANOMALY":223.1979,"EPHEMERIS_TYPE":0,"CLASSIFICATION_TYPE":"U","NORAD_CAT_ID":39617,"ELEMENT_SET_NO":999,"REV_AT_EPOCH":3085,"BSTAR":0,"MEAN_MOTION_DOT":1.48e-6,"MEAN_MOTION_DDOT":0},{"OBJECT_NAME":"IRNSS-1B","OBJECT_ID":"2014-017A","EPOCH":"2022-08-13T16:26:42.785952","MEAN_MOTION":1.00276046,"ECCENTRICITY":0.0021587,"INCLINATION":28.629,"RA_OF_ASC_NODE":264.142,"ARG_OF_PERICENTER":191.9483,"MEAN_ANOMALY":167.7247,"EPHEMERIS_TYPE":0,"CLASSIFICATION_TYPE":"U","NORAD_CAT_ID":39635,"ELEMENT_SET_NO":999,"REV_AT_EPOCH":3071,"BSTAR":0,"MEAN_MOTION_DOT":1.03e-6,"MEAN_MOTION_DDOT":0},{"OBJECT_NAME":"LUCH 5V","OBJECT_ID":"2014-023A","EPOCH":"2022-08-18T20:51:54.883008","MEAN_MOTION":1.00268592,"ECCENTRICITY":0.0003665,"INCLINATION":1.6413,"RA_OF_ASC_NODE":76.2416,"ARG_OF_PERICENTER":93.1146,"MEAN_ANOMALY":205.4813,"EPHEMERIS_TYPE":0,"CLASSIFICATION_TYPE":"U","NORAD_CAT_ID":39727,"ELEMENT_SET_NO":999,"REV_AT_EPOCH":3033,"BSTAR":0,"MEAN_MOTION_DOT":-2.75e-6,"MEAN_MOTION_DDOT":0},{"OBJECT_NAME":"KAZSAT-3","OBJECT_ID":"2014-023B","EPOCH":"2022-08-19T01:59:39.611904","MEAN_MOTION":1.0026646,"ECCENTRICITY":5.02e-5,"INCLINATION":0.0153,"RA_OF_ASC_NODE":113.1439,"ARG_OF_PERICENTER":97.0076,"MEAN_ANOMALY":205.6571,"EPHEMERIS_TYPE":0,"CLASSIFICATION_TYPE":"U","NORAD_CAT_ID":39728,"ELEMENT_SET_NO":999,"REV_AT_EPOCH":3042,"BSTAR":0,"MEAN_MOTION_DOT":5.5e-7,"MEAN_MOTION_DDOT":0},{"OBJECT_NAME":"EUTELSAT 3B","OBJECT_ID":"2014-030A","EPOCH":"2022-08-18T20:33:53.169696","MEAN_MOTION":1.00272351,"ECCENTRICITY":0.0004698,"INCLINATION":0.0631,"RA_OF_ASC_NODE":16.0833,"ARG_OF_PERICENTER":153.1424,"MEAN_ANOMALY":109.5081,"EPHEMERIS_TYPE":0,"CLASSIFICATION_TYPE":"U","NORAD_CAT_ID":39773,"ELEMENT_SET_NO":999,"REV_AT_EPOCH":3004,"BSTAR":0,"MEAN_MOTION_DOT":1.3e-7,"MEAN_MOTION_DDOT":0},{"OBJECT_NAME":"ASIASAT 8 (AMOS-7)","OBJECT_ID":"2014-046A","EPOCH":"2022-08-18T20:26:42.515808","MEAN_MOTION":1.00272656,"ECCENTRICITY":0.0002035,"INCLINATION":0.0053,"RA_OF_ASC_NODE":295.3554,"ARG_OF_PERICENTER":206.9467,"MEAN_ANOMALY":127.658,"EPHEMERIS_TYPE":0,"CLASSIFICATION_TYPE":"U","NORAD_CAT_ID":40107,"ELEMENT_SET_NO":999,"REV_AT_EPOCH":8812,"BSTAR":0,"MEAN_MOTION_DOT":-4.0e-7,"MEAN_MOTION_DDOT":0},{"OBJECT_NAME":"ASIASAT 6","OBJECT_ID":"2014-052A","EPOCH":"2022-08-18T22:50:39.098688","MEAN_MOTION":1.00270174,"ECCENTRICITY":8.49e-5,"INCLINATION":0.0077,"RA_OF_ASC_NODE":201.4322,"ARG_OF_PERICENTER":282.7511,"MEAN_ANOMALY":305.6565,"EPHEMERIS_TYPE":0,"CLASSIFICATION_TYPE":"U","NORAD_CAT_ID":40141,"ELEMENT_SET_NO":999,"REV_AT_EPOCH":2914,"BSTAR":0,"MEAN_MOTION_DOT":-3.69e-6,"MEAN_MOTION_DDOT":0},{"OBJECT_NAME":"OPTUS 10","OBJECT_ID":"2014-054A","EPOCH":"2022-08-18T21:17:42.575712","MEAN_MOTION":1.00268611,"ECCENTRICITY":0.0004145,"INCLINATION":0.1207,"RA_OF_ASC_NODE":100.5262,"ARG_OF_PERICENTER":64.1439,"MEAN_ANOMALY":277.9851,"EPHEMERIS_TYPE":0,"CLASSIFICATION_TYPE":"U","NORAD_CAT_ID":40146,"ELEMENT_SET_NO":999,"REV_AT_EPOCH":2910,"BSTAR":0,"MEAN_MOTION_DOT":-1.54e-6,"MEAN_MOTION_DDOT":0},{"OBJECT_NAME":"MEASAT-3B","OBJECT_ID":"2014-054B","EPOCH":"2022-08-16T14:23:13.313760","MEAN_MOTION":1.0026818,"ECCENTRICITY":0.0002083,"INCLINATION":0.0359,"RA_OF_ASC_NODE":47.5258,"ARG_OF_PERICENTER":47.1548,"MEAN_ANOMALY":177.5505,"EPHEMERIS_TYPE":0,"CLASSIFICATION_TYPE":"U","NORAD_CAT_ID":40147,"ELEMENT_SET_NO":999,"REV_AT_EPOCH":2886,"BSTAR":0,"MEAN_MOTION_DOT":-2.53e-6,"MEAN_MOTION_DDOT":0},{"OBJECT_NAME":"LUCH (OLYMP)","OBJECT_ID":"2014-058A","EPOCH":"2022-08-18T21:58:32.121120","MEAN_MOTION":0.99685014,"ECCENTRICITY":0.0001249,"INCLINATION":0.0113,"RA_OF_ASC_NODE":116.5642,"ARG_OF_PERICENTER":13.7641,"MEAN_ANOMALY":159.6835,"EPHEMERIS_TYPE":0,"CLASSIFICATION_TYPE":"U","NORAD_CAT_ID":40258,"ELEMENT_SET_NO":999,"REV_AT_EPOCH":2696,"BSTAR":0,"MEAN_MOTION_DOT":-1.57e-6,"MEAN_MOTION_DDOT":0},{"OBJECT_NAME":"HIMAWARI-8","OBJECT_ID":"2014-060A","EPOCH":"2022-08-18T20:37:42.549600","MEAN_MOTION":1.00271935,"ECCENTRICITY":9.22e-5,"INCLINATION":0.0244,"RA_OF_ASC_NODE":200.8443,"ARG_OF_PERICENTER":330.4749,"MEAN_ANOMALY":245.9598,"EPHEMERIS_TYPE":0,"CLASSIFICATION_TYPE":"U","NORAD_CAT_ID":40267,"ELEMENT_SET_NO":999,"REV_AT_EPOCH":2873,"BSTAR":0,"MEAN_MOTION_DOT":-2.82e-6,"MEAN_MOTION_DDOT":0},{"OBJECT_NAME":"IRNSS-1C","OBJECT_ID":"2014-061A","EPOCH":"2022-08-18T20:34:13.255104","MEAN_MOTION":1.00275248,"ECCENTRICITY":0.0020704,"INCLINATION":3.0905,"RA_OF_ASC_NODE":126.2693,"ARG_OF_PERICENTER":2.6277,"MEAN_ANOMALY":229.915,"EPHEMERIS_TYPE":0,"CLASSIFICATION_TYPE":"U","NORAD_CAT_ID":40269,"ELEMENT_SET_NO":999,"REV_AT_EPOCH":2866,"BSTAR":0,"MEAN_MOTION_DOT":-1.72e-6,"MEAN_MOTION_DDOT":0},{"OBJECT_NAME":"INTELSAT 30 (IS-30)","OBJECT_ID":"2014-062A","EPOCH":"2022-08-19T02:47:54.686688","MEAN_MOTION":1.002666,"ECCENTRICITY":0.0001527,"INCLINATION":0.0094,"RA_OF_ASC_NODE":129.7535,"ARG_OF_PERICENTER":314.7863,"MEAN_ANOMALY":189.8163,"EPHEMERIS_TYPE":0,"CLASSIFICATION_TYPE":"U","NORAD_CAT_ID":40271,"ELEMENT_SET_NO":999,"REV_AT_EPOCH":2874,"BSTAR":0,"MEAN_MOTION_DOT":-1.56e-6,"MEAN_MOTION_DDOT":0},{"OBJECT_NAME":"ARSAT 1","OBJECT_ID":"2014-062B","EPOCH":"2022-08-18T13:59:42.703296","MEAN_MOTION":1.00269847,"ECCENTRICITY":0.0001686,"INCLINATION":0.0394,"RA_OF_ASC_NODE":301.8717,"ARG_OF_PERICENTER":222.0291,"MEAN_ANOMALY":301.1148,"EPHEMERIS_TYPE":0,"CLASSIFICATION_TYPE":"U","NORAD_CAT_ID":40272,"ELEMENT_SET_NO":999,"REV_AT_EPOCH":2859,"BSTAR":0,"MEAN_MOTION_DOT":-2.66e-6,"MEAN_MOTION_DDOT":0},{"OBJECT_NAME":"EXPRESS-AM6","OBJECT_ID":"2014-064A","EPOCH":"2022-08-19T04:15:42.510240","MEAN_MOTION":1.00273378,"ECCENTRICITY":8.57e-5,"INCLINATION":0.0464,"RA_OF_ASC_NODE":262.0615,"ARG_OF_PERICENTER":333.9571,"MEAN_ANOMALY":208.3976,"EPHEMERIS_TYPE":0,"CLASSIFICATION_TYPE":"U","NORAD_CAT_ID":40277,"ELEMENT_SET_NO":999,"REV_AT_EPOCH":2865,"BSTAR":0,"MEAN_MOTION_DOT":9.2e-7,"MEAN_MOTION_DDOT":0}]